{
  "type": "FeatureCollection",
  "features": [
    {
      "type": "Feature",
      "properties": {
        "norad_id": 34350,
        "name": "IRIDIUM 33 DEB",
        "group": "iridium-33-debris",
        "lat": 36.340115925673125,
        "lon": 6.869400038725227,
        "alt_km": 743.3352685942018,
        "timestamp": "2025-12-09T14:52:26.547571+00:00",
        "meta_object_name": "IRIDIUM 33 DEB",
        "meta_object_id": "1997-051ES",
        "meta_epoch": "2025-12-09T01:39:34.597152",
        "meta_mean_motion": 14.45373278,
        "meta_eccentricity": 0.00224735,
        "meta_inclination": 86.3277,
        "meta_ra_of_asc_node": 4.4002,
        "meta_arg_of_pericenter": 146.6467,
        "meta_mean_anomaly": 266.9742,
        "meta_ephemeris_type": 0,
        "meta_classification_type": "U",
        "meta_norad_cat_id": 34350,
        "meta_element_set_no": 999,
        "meta_rev_at_epoch": 88240,
        "meta_bstar": 0.00045977346,
        "meta_mean_motion_dot": 1.641e-05,
        "meta_mean_motion_ddot": 0,
        "tle_line1": "1 34350U 97051ES  25343.06915043  .00001641  00000+0  45977-3 0  9998",
        "tle_line2": "2 34350  86.3277   4.4002 0022473 146.6467 266.9742 14.45373278882404"
      },
      "geometry": {
        "type": "Point",
        "coordinates": [
          6.869400038725227,
          36.340115925673125
        ]
      }
    },
    {
      "type": "Feature",
      "properties": {
        "norad_id": 34366,
        "name": "IRIDIUM 33 DEB",
        "group": "iridium-33-debris",
        "lat": -85.79734626292203,
        "lon": -69.54926835396941,
        "alt_km": 727.4930727847077,
        "timestamp": "2025-12-09T14:52:26.547582+00:00",
        "meta_object_name": "IRIDIUM 33 DEB",
        "meta_object_id": "1997-051FJ",
        "meta_epoch": "2025-12-09T05:39:10.972224",
        "meta_mean_motion": 14.54009131,
        "meta_eccentricity": 0.00222046,
        "meta_inclination": 86.3692,
        "meta_ra_of_asc_node": 50.8372,
        "meta_arg_of_pericenter": 150.759,
        "meta_mean_anomaly": 267.0776,
        "meta_ephemeris_type": 0,
        "meta_classification_type": "U",
        "meta_norad_cat_id": 34366,
        "meta_element_set_no": 999,
        "meta_rev_at_epoch": 88131,
        "meta_bstar": 0.0015877255,
        "meta_mean_motion_dot": 6.735e-05,
        "meta_mean_motion_ddot": 0,
        "tle_line1": "1 34366U 97051FJ  25343.23554366  .00006735  00000+0  15877-2 0  9995",
        "tle_line2": "2 34366  86.3692  50.8372 0022204 150.7590 267.0776 14.54009131881314"
      },
      "geometry": {
        "type": "Point",
        "coordinates": [
          -69.54926835396941,
          -85.79734626292203
        ]
      }
    },
    {
      "type": "Feature",
      "properties": {
        "norad_id": 34375,
        "name": "IRIDIUM 33 DEB",
        "group": "iridium-33-debris",
        "lat": -48.251288097426276,
        "lon": 7.963137763870382,
        "alt_km": 840.6297109961743,
        "timestamp": "2025-12-09T14:52:26.547592+00:00",
        "meta_object_name": "IRIDIUM 33 DEB",
        "meta_object_id": "1997-051FT",
        "meta_epoch": "2025-12-09T01:01:12.013824",
        "meta_mean_motion": 14.17981407,
        "meta_eccentricity": 0.01030348,
        "meta_inclination": 86.4326,
        "meta_ra_of_asc_node": 184.1877,
        "meta_arg_of_pericenter": 138.3544,
        "meta_mean_anomaly": 23.8755,
        "meta_ephemeris_type": 0,
        "meta_classification_type": "U",
        "meta_norad_cat_id": 34375,
        "meta_element_set_no": 999,
        "meta_rev_at_epoch": 86659,
        "meta_bstar": 0.00056641223,
        "meta_mean_motion_dot": 1.241e-05,
        "meta_mean_motion_ddot": 0,
        "tle_line1": "1 34375U 97051FT  25343.04250016  .00001241  00000+0  56641-3 0  9991",
        "tle_line2": "2 34375  86.4326 184.1877 0103034 138.3544  23.8755 14.17981407866594"
      },
      "geometry": {
        "type": "Point",
        "coordinates": [
          7.963137763870382,
          -48.251288097426276
        ]
      }
    },
    {
      "type": "Feature",
      "properties": {
        "norad_id": 34376,
        "name": "IRIDIUM 33 DEB",
        "group": "iridium-33-debris",
        "lat": 79.72967980546638,
        "lon": 167.00874261120103,
        "alt_km": 673.7664252411023,
        "timestamp": "2025-12-09T14:52:26.547603+00:00",
        "meta_object_name": "IRIDIUM 33 DEB",
        "meta_object_id": "1997-051FU",
        "meta_epoch": "2025-12-09T01:16:56.150688",
        "meta_mean_motion": 14.62483707,
        "meta_eccentricity": 0.00267298,
        "meta_inclination": 86.2984,
        "meta_ra_of_asc_node": 8.1966,
        "meta_arg_of_pericenter": 179.1594,
        "meta_mean_anomaly": 180.9667,
        "meta_ephemeris_type": 0,
        "meta_classification_type": "U",
        "meta_norad_cat_id": 34376,
        "meta_element_set_no": 999,
        "meta_rev_at_epoch": 87953,
        "meta_bstar": 0.0016761111,
        "meta_mean_motion_dot": 8.56e-05,
        "meta_mean_motion_ddot": 0,
        "tle_line1": "1 34376U 97051FU  25343.05342767  .00008560  00000+0  16761-2 0  9997",
        "tle_line2": "2 34376  86.2984   8.1966 0026729 179.1594 180.9667 14.62483707879535"
      },
      "geometry": {
        "type": "Point",
        "coordinates": [
          167.00874261120103,
          79.72967980546638
        ]
      }
    },
    {
      "type": "Feature",
      "properties": {
        "norad_id": 34486,
        "name": "IRIDIUM 33 DEB",
        "group": "iridium-33-debris",
        "lat": -55.28266270504377,
        "lon": 8.242772912190505,
        "alt_km": 597.0807504663035,
        "timestamp": "2025-12-09T14:52:26.547613+00:00",
        "meta_object_name": "IRIDIUM 33 DEB",
        "meta_object_id": "1997-051GB",
        "meta_epoch": "2025-12-09T02:32:24.432576",
        "meta_mean_motion": 14.95535062,
        "meta_eccentricity": 0.00133768,
        "meta_inclination": 86.394,
        "meta_ra_of_asc_node": 13.7018,
        "meta_arg_of_pericenter": 124.1656,
        "meta_mean_anomaly": 295.4203,
        "meta_ephemeris_type": 0,
        "meta_classification_type": "U",
        "meta_norad_cat_id": 34486,
        "meta_element_set_no": 999,
        "meta_rev_at_epoch": 88932,
        "meta_bstar": 0.0024815535,
        "meta_mean_motion_dot": 0.00027645,
        "meta_mean_motion_ddot": 0,
        "tle_line1": "1 34486U 97051GB  25343.10583834  .00027645  00000+0  24816-2 0  9992",
        "tle_line2": "2 34486  86.3940  13.7018 0013376 124.1656 295.4203 14.95535062889327"
      },
      "geometry": {
        "type": "Point",
        "coordinates": [
          8.242772912190505,
          -55.28266270504377
        ]
      }
    },
    {
      "type": "Feature",
      "properties": {
        "norad_id": 34487,
        "name": "IRIDIUM 33 DEB",
        "group": "iridium-33-debris",
        "lat": -8.873499917884192,
        "lon": -165.70737503760066,
        "alt_km": 737.3307335202162,
        "timestamp": "2025-12-09T14:52:26.547624+00:00",
        "meta_object_name": "IRIDIUM 33 DEB",
        "meta_object_id": "1997-051GC",
        "meta_epoch": "2025-12-09T02:36:24.393888",
        "meta_mean_motion": 14.43208677,
        "meta_eccentricity": 0.00324935,
        "meta_inclination": 86.3437,
        "meta_ra_of_asc_node": 13.9406,
        "meta_arg_of_pericenter": 139.8025,
        "meta_mean_anomaly": 274.7382,
        "meta_ephemeris_type": 0,
        "meta_classification_type": "U",
        "meta_norad_cat_id": 34487,
        "meta_element_set_no": 999,
        "meta_rev_at_epoch": 88196,
        "meta_bstar": 0.00027735172,
        "meta_mean_motion_dot": 9.58e-06,
        "meta_mean_motion_ddot": 0,
        "tle_line1": "1 34487U 97051GC  25343.10861567  .00000958  00000+0  27735-3 0  9997",
        "tle_line2": "2 34487  86.3437  13.9406 0032493 139.8025 274.7382 14.43208677881968"
      },
      "geometry": {
        "type": "Point",
        "coordinates": [
          -165.70737503760066,
          -8.873499917884192
        ]
      }
    },
    {
      "type": "Feature",
      "properties": {
        "norad_id": 34488,
        "name": "IRIDIUM 33 DEB",
        "group": "iridium-33-debris",
        "lat": -82.75049958941881,
        "lon": -82.99616200665132,
        "alt_km": 495.9988249361213,
        "timestamp": "2025-12-09T14:52:26.547634+00:00",
        "meta_object_name": "IRIDIUM 33 DEB",
        "meta_object_id": "1997-051GD",
        "meta_epoch": "2025-12-08T21:57:07.266816",
        "meta_mean_motion": 15.27997887,
        "meta_eccentricity": 0.0014352,
        "meta_inclination": 86.3246,
        "meta_ra_of_asc_node": 307.7053,
        "meta_arg_of_pericenter": 57.4212,
        "meta_mean_anomaly": 302.8418,
        "meta_ephemeris_type": 0,
        "meta_classification_type": "U",
        "meta_norad_cat_id": 34488,
        "meta_element_set_no": 999,
        "meta_rev_at_epoch": 89181,
        "meta_bstar": 0.0052155,
        "meta_mean_motion_dot": 0.00145336,
        "meta_mean_motion_ddot": 0,
        "tle_line1": "1 34488U 97051GD  25342.91466744  .00145336  00000+0  52155-2 0  9997",
        "tle_line2": "2 34488  86.3246 307.7053 0014352  57.4212 302.8418 15.27997887891815"
      },
      "geometry": {
        "type": "Point",
        "coordinates": [
          -82.99616200665132,
          -82.75049958941881
        ]
      }
    }
  ]
}